[{"OBJECT_NAME":"JILIN-1 GAOFEN 03D47","OBJECT_ID":"2022-167L","EPOCH":"2026-03-09T22:56:46.924224","MEAN_MOTION":15.31686941,"ECCENTRICITY":0.00089304,"INCLINATION":97.6835,"RA_OF_ASC_NODE":234.6581,"ARG_OF_PERICENTER":110.4031,"MEAN_ANOMALY":249.8169,"EPHEMERIS_TYPE":0,"CLASSIFICATION_TYPE":"U","NORAD_CAT_ID":54692,"ELEMENT_SET_NO":999,"REV_AT_EPOCH":18014,"BSTAR":0.00047294748,"MEAN_MOTION_DOT":0.00014417,"MEAN_MOTION_DDOT":0},{"OBJECT_NAME":"STARLINK-30084","OBJECT_ID":"2023-079C","EPOCH":"2026-03-09T22:00:01.999584","MEAN_MOTION":15.23505566,"ECCENTRICITY":0.00011469,"INCLINATION":43.0023,"RA_OF_ASC_NODE":104.9996,"ARG_OF_PERICENTER":274.1304,"MEAN_ANOMALY":27.2312,"EPHEMERIS_TYPE":0,"CLASSIFICATION_TYPE":"U","NORAD_CAT_ID":56825,"ELEMENT_SET_NO":999,"REV_AT_EPOCH":578,"BSTAR":0.031721463,"MEAN_MOTION_DOT":0.00827712,"MEAN_MOTION_DDOT":0}]
